OBJECT_NAME,OBJECT_ID,EPOCH,MEAN_MOTION,ECCENTRICITY,INCLINATION,RA_OF_ASC_NODE,ARG_OF_PERICENTER,MEAN_ANOMALY,EPHEMERIS_TYPE,CLASSIFICATION_TYPE,NORAD_CAT_ID,ELEMENT_SET_NO,REV_AT_EPOCH,BSTAR,MEAN_MOTION_DOT,MEAN_MOTION_DDOT
IRIDIUM 33 DEB,1997-051JU,2024-06-01T07:03:12.996288,15.21692609,0.0022613,86.3502,247.5443,231.5115,128.4101,0,U,34643,999,80327,0.0097874,0.00229404,0
IRIDIUM 33 DEB,1997-051JZ,2024-05-29T23:15:38.205216,13.9704193,0.0211868,86.4138,145.8336,248.0477,109.8061,0,U,34648,999,77071,0.0021551,3.65e-05,0
IRIDIUM 33 DEB,1997-051KC,2024-06-01T01:56:42.267264,14.13227874,0.0171496,86.2902,16.4903,186.9947,172.8844,0,U,34651,999,77951,0.0026104,5.64e-05,0
IRIDIUM 33 DEB,1997-051KD,2024-06-01T04:30:42.521760,14.53687192,0.0033631,86.3367,227.405,34.8193,28.7174,0,U,34652,999,80402,0.00098887,4.191e-05,0
IRIDIUM 33 DEB,1997-051KM,2024-05-31T01:48:29.443392,14.49485511,0.0011326,86.3793,279.5194,102.2654,311.4836,0,U,34690,999,79977,0.0010573,4.072e-05,0
IRIDIUM 33 DEB,1997-051KQ,2024-05-30T03:28:24.250368,14.71888178,0.0017997,86.3359,207.3009,222.6376,196.3425,0,U,34693,999,80593,0.0017031,0.00010716,0
IRIDIUM 33 DEB,1997-051KT,2024-05-31T20:01:08.340384,14.32171254,0.0116098,86.1983,280.4604,230.8655,283.3358,0,U,34696,999,78568,0.0055113,0.00016023,0
IRIDIUM 33 DEB,1997-051KZ,2024-05-30T11:14:14.705664,14.8208803,0.0032491,86.3039,163.7948,78.6999,281.7871,0,U,34702,999,81046,0.0022095,0.00017775,0
IRIDIUM 33 DEB,1997-051LJ,2024-06-01T06:54:18.249408,14.3752394,0.0015027,86.3385,272.19,254.6626,134.9148,0,U,34765,999,79646,0.0005858,1.775e-05,0
IRIDIUM 33 DEB,1997-051LS,2024-06-01T14:55:10.685280,14.97616116,0.0012837,86.3879,266.0793,179.9443,180.1792,0,U,34773,999,80766,0.0058161,0.0006868,0
IRIDIUM 33 DEB,1997-051LT,2024-06-01T06:58:12.113472,15.47822409,0.001678,86.413,254.5372,287.4281,72.5143,0,U,34774,999,81111,0.010725,0.00602114,0
IRIDIUM 33 DEB,1997-051LU,2024-06-01T07:43:49.791648,14.63331337,0.0024646,86.3722,277.39,69.839,320.1763,0,U,34775,999,80045,0.0032164,0.00016721,0
IRIDIUM 33 DEB,1997-051LZ,2024-06-01T06:06:22.073760,15.10295243,0.0013399,86.3519,237.6784,191.1489,222.0803,0,U,34825,999,80402,0.0072626,0.00120996,0
IRIDIUM 33 DEB,1997-051MH,2024-06-01T09:15:19.340928,14.45870681,0.0022268,86.3932,290.7729,160.7537,253.7735,0,U,34833,999,79612,0.0012119,4.336e-05,0
IRIDIUM 33 DEB,1997-051MQ,2024-06-01T03:34:12.692928,14.60824881,0.0022358,86.3205,207.0843,327.9188,93.6361,0,U,34870,999,80695,0.0014032,6.9e-05,0
IRIDIUM 33 DEB,1997-051MY,2024-05-30T11:06:34.178976,14.57046674,0.0030078,86.3364,216.4857,336.5226,82.6509,0,U,34896,999,80125,0.00082808,3.769e-05,0
IRIDIUM 33 DEB,1997-051NA,2024-05-10T13:11:56.617440,15.39382995,0.0003477,86.3088,166.9276,190.8282,169.2898,0,U,34898,999,80622,0.0092641,0.00379784,0
IRIDIUM 33 DEB,1997-051NF,2024-06-01T06:47:39.821856,14.27727465,0.0137417,86.1442,261.6234,330.7625,57.3142,0,U,34926,999,78397,0.0016986,4.652e-05,0
IRIDIUM 33 DEB,1997-051NH,2024-05-27T12:00:28.475712,14.76833093,0.0027527,86.396,235.7159,169.194,190.9877,0,U,34928,999,80470,0.0021298,0.00015083,0
IRIDIUM 33 DEB,1997-051NR,2024-06-01T09:05:10.817952,14.38547824,0.0020323,86.3674,294.751,267.6949,121.612,0,U,34985,999,79123,0.00072,2.225e-05,0
IRIDIUM 33 DEB,1997-051NX,2024-05-31T13:56:36.822336,14.42724862,0.0010541,86.3256,252.0024,140.0517,220.1461,0,U,35051,999,78904,0.0013074,4.373e-05,0
IRIDIUM 33 DEB,1997-051NY,2024-06-01T13:34:57.644544,14.37095324,0.0013695,86.3313,259.8237,113.3016,246.9624,0,U,35052,999,79481,0.00028636,8.71e-06,0
IRIDIUM 33 DEB,1997-051PE,2024-05-10T01:06:58.583232,14.47781946,0.0097939,86.4279,51.333,158.6029,201.9314,0,U,35079,999,77920,0.010916,0.00043094,0
IRIDIUM 33 DEB,1997-051PF,2024-05-29T09:39:34.214112,14.36771032,0.0136992,86.2249,308.3419,280.9819,77.5993,0,U,35080,999,61500,0.0032036,0.00010551,0
IRIDIUM 33 DEB,1997-051PJ,2024-05-30T21:32:36.179808,15.48257008,0.0011733,86.2599,194.9998,246.6797,240.2799,0,U,35294,999,79905,0.011815,0.00678541,0
IRIDIUM 33 DEB,1997-051PL,2024-05-08T12:06:29.606112,14.76360424,0.0010215,86.3027,215.3366,176.5463,183.5829,0,U,35296,999,62618,0.0044979,0.0003138,0
IRIDIUM 33 DEB,1997-051PM,2024-05-30T04:08:19.074336,14.40484766,0.0015175,86.3892,301.4668,194.8894,165.1861,0,U,35297,999,62327,0.00094834,3.038e-05,0
IRIDIUM 33 DEB,1997-051PP,2024-05-30T02:45:00.253728,14.34171522,0.0060576,86.2891,276.2504,145.6162,337.5385,0,U,35299,999,78375,0.0016402,4.708e-05,0
IRIDIUM 33 DEB,1997-051QA,2024-05-31T18:16:08.807520,14.44734347,0.0015359,86.3589,266.6441,163.7776,196.3921,0,U,35480,999,78930,0.0014844,5.176e-05,0
IRIDIUM 33 DEB,1997-051QE,2024-05-31T12:44:01.170240,14.6485801,0.0036723,86.3723,247.1941,298.4525,61.2989,0,U,35484,999,53724,0.0042132,0.00022794,0
