IRIDIUM 33 DEB          
1 34643U 97051JU  24153.29390042  .00229404  00000+0  97874-2 0  9993
2 34643  86.3502 247.5443 0022613 231.5115 128.4101 15.21692609803275
IRIDIUM 33 DEB          
1 34648U 97051JZ  24150.96919219  .00003650  00000+0  21551-2 0  9994
2 34648  86.4138 145.8336 0211868 248.0477 109.8061 13.97041930770719
IRIDIUM 33 DEB          
1 34651U 97051KC  24153.08104476  .00005640  00000+0  26104-2 0  9995
2 34651  86.2902  16.4903 0171496 186.9947 172.8844 14.13227874779515
IRIDIUM 33 DEB          
1 34652U 97051KD  24153.18799215  .00004191  00000+0  98887-3 0  9996
2 34652  86.3367 227.4050 0033631  34.8193  28.7174 14.53687192804028
IRIDIUM 33 DEB          
1 34690U 97051KM  24152.07534078  .00004072  00000+0  10573-2 0  9992
2 34690  86.3793 279.5194 0011326 102.2654 311.4836 14.49485511799777
IRIDIUM 33 DEB          
1 34693U 97051KQ  24151.14472512  .00010716  00000+0  17031-2 0  9994
2 34693  86.3359 207.3009 0017997 222.6376 196.3425 14.71888178805931
IRIDIUM 33 DEB          
1 34696U 97051KT  24152.83412431  .00016023  00000+0  55113-2 0  9998
2 34696  86.1983 280.4604 0116098 230.8655 283.3358 14.32171254785689
IRIDIUM 33 DEB          
1 34702U 97051KZ  24151.46822576  .00017775  00000+0  22095-2 0  9997
2 34702  86.3039 163.7948 0032491  78.6999 281.7871 14.82088030810469
IRIDIUM 33 DEB          
1 34765U 97051LJ  24153.28771122  .00001775  00000+0  58580-3 0  9990
2 34765  86.3385 272.1900 0015027 254.6626 134.9148 14.37523940796467
IRIDIUM 33 DEB          
1 34773U 97051LS  24153.62165145  .00068680  00000+0  58161-2 0  9991
2 34773  86.3879 266.0793 0012837 179.9443 180.1792 14.97616116807665
IRIDIUM 33 DEB          
1 34774U 97051LT  24153.29041798  .00602114  00000+0  10725-1 0  9991
2 34774  86.4130 254.5372 0016780 287.4281  72.5143 15.47822409811117
IRIDIUM 33 DEB          
1 34775U 97051LU  24153.32210407  .00016721  00000+0  32164-2 0  9996
2 34775  86.3722 277.3900 0024646  69.8390 320.1763 14.63331337800454
IRIDIUM 33 DEB          
1 34825U 97051LZ  24153.25442215  .00120996  00000+0  72626-2 0  9995
2 34825  86.3519 237.6784 0013399 191.1489 222.0803 15.10295243804024
IRIDIUM 33 DEB          
1 34833U 97051MH  24153.38564052  .00004336  00000+0  12119-2 0  9992
2 34833  86.3932 290.7729 0022268 160.7537 253.7735 14.45870681796120
IRIDIUM 33 DEB          
1 34870U 97051MQ  24153.14875802  .00006900  00000+0  14032-2 0  9990
2 34870  86.3205 207.0843 0022358 327.9188  93.6361 14.60824881806958
IRIDIUM 33 DEB          
1 34896U 97051MY  24151.46289559  .00003769  00000+0  82808-3 0  9996
2 34896  86.3364 216.4857 0030078 336.5226  82.6509 14.57046674801250
IRIDIUM 33 DEB          
1 34898U 97051NA  24131.54996085  .00379784  00000+0  92641-2 0  9992
2 34898  86.3088 166.9276 0003477 190.8282 169.2898 15.39382995806220
IRIDIUM 33 DEB          
1 34926U 97051NF  24153.28309979  .00004652  00000+0  16986-2 0  9996
2 34926  86.1442 261.6234 0137417 330.7625  57.3142 14.27727465783975
IRIDIUM 33 DEB          
1 34928U 97051NH  24148.50032958  .00015083  00000+0  21298-2 0  9999
2 34928  86.3960 235.7159 0027527 169.1940 190.9877 14.76833093804709
IRIDIUM 33 DEB          
1 34985U 97051NR  24153.37859743  .00002225  00000+0  72000-3 0  9994
2 34985  86.3674 294.7510 0020323 267.6949 121.6120 14.38547824791237
IRIDIUM 33 DEB          
1 35051U 97051NX  24152.58098174  .00004373  00000+0  13074-2 0  9995
2 35051  86.3256 252.0024 0010541 140.0517 220.1461 14.42724862789044
IRIDIUM 33 DEB          
1 35052U 97051NY  24153.56594496  .00000871  00000+0  28636-3 0  9993
2 35052  86.3313 259.8237 0013695 113.3016 246.9624 14.37095324794816
IRIDIUM 33 DEB          
1 35079U 97051PE  24131.04651138  .00043094  00000+0  10916-1 0  9992
2 35079  86.4279  51.3330 0097939 158.6029 201.9314 14.47781946779201
IRIDIUM 33 DEB          
1 35080U 97051PF  24150.40247933  .00010551  00000+0  32036-2 0  9999
2 35080  86.2249 308.3419 0136992 280.9819  77.5993 14.36771032615000
IRIDIUM 33 DEB          
1 35294U 97051PJ  24151.89764097  .00678541  00000+0  11815-1 0  9995
2 35294  86.2599 194.9998 0011733 246.6797 240.2799 15.48257008799052
IRIDIUM 33 DEB          
1 35296U 97051PL  24129.50450933  .00031380  00000+0  44979-2 0  9993
2 35296  86.3027 215.3366 0010215 176.5463 183.5829 14.76360424626186
IRIDIUM 33 DEB          
1 35297U 97051PM  24151.17244299  .00003038  00000+0  94834-3 0  9993
2 35297  86.3892 301.4668 0015175 194.8894 165.1861 14.40484766623276
IRIDIUM 33 DEB          
1 35299U 97051PP  24151.11458627  .00004708  00000+0  16402-2 0  9990
2 35299  86.2891 276.2504 0060576 145.6162 337.5385 14.34171522783753
IRIDIUM 33 DEB          
1 35480U 97051QA  24152.76121305  .00005176  00000+0  14844-2 0  9992
2 35480  86.3589 266.6441 0015359 163.7776 196.3921 14.44734347789309
IRIDIUM 33 DEB          
1 35484U 97051QE  24152.53056910  .00022794  00000+0  42132-2 0  9996
2 35484  86.3723 247.1941 0036723 298.4525  61.2989 14.64858010537242
